{"type": "FeatureCollection", "features": [ {"type": "Feature", "properties": {"norad_id": 34079, "name": "IRIDIUM 33 DEB", "group": "iridium-33-debris", "lat": -58.816226081134076, "lon": -171.43518902696476, "alt_km": 623.7360341986805, "timestamp": "2025-12-26T03:50:12.478527+00:00", "meta": {"OBJECT_NAME": "IRIDIUM 33 DEB", "OBJECT_ID": "1997-051CN", "EPOCH": "2025-12-25T12:46:07.398048", "MEAN_MOTION": 14.83867187, "ECCENTRICITY": 0.0003997, "INCLINATION": 86.3777, "RA_OF_ASC_NODE": 2.8424, "ARG_OF_PERICENTER": 319.4586, "MEAN_ANOMALY": 167.865, "EPHEMERIS_TYPE": 0, "CLASSIFICATION_TYPE": "U", "NORAD_CAT_ID": 34079, "ELEMENT_SET_NO": 999, "REV_AT_EPOCH": 89167, "BSTAR": 0.0019274, "MEAN_MOTION_DOT": 0.00016035, "MEAN_MOTION_DDOT": 0}, "tle": {"line1": "1 34079U 97051CN  25359.53203007  .00016035  00000+0  19274-2 0  9998", "line2": "2 34079  86.3777   2.8424 0003997 319.4586 167.8650 14.83867187891674"}}, "geometry": {"type": "Point", "coordinates": [-171.43518902696476, -58.816226081134076]}}, {"type": "Feature", "properties": {"norad_id": 34088, "name": "IRIDIUM 33 DEB", "group": "iridium-33-debris", "lat": -4.868638831941983, "lon": 24.245104639885703, "alt_km": 599.2375848175288, "timestamp": "2025-12-26T03:50:12.478538+00:00", "meta": {"OBJECT_NAME": "IRIDIUM 33 DEB", "OBJECT_ID": "1997-051CX", "EPOCH": "2025-12-25T13:54:21.561408", "MEAN_MOTION": 14.91956095, "ECCENTRICITY": 0.0007066, "INCLINATION": 86.3844, "RA_OF_ASC_NODE": 24.8206, "ARG_OF_PERICENTER": 136.8493, "MEAN_ANOMALY": 342.8707, "EPHEMERIS_TYPE": 0, "CLASSIFICATION_TYPE": "U", "NORAD_CAT_ID": 34088, "ELEMENT_SET_NO": 999, "REV_AT_EPOCH": 88933, "BSTAR": 0.0024865, "MEAN_MOTION_DOT": 0.00025266, "MEAN_MOTION_DDOT": 0}, "tle": {"line1": "1 34088U 97051CX  25359.57941622  .00025266  00000+0  24865-2 0  9992", "line2": "2 34088  86.3844  24.8206 0007066 136.8493 342.8707 14.91956095889334"}}, "geometry": {"type": "Point", "coordinates": [24.245104639885703, -4.868638831941983]}}, {"type": "Feature", "properties": {"norad_id": 34091, "name": "IRIDIUM 33 DEB", "group": "iridium-33-debris", "lat": 86.02244143603536, "lon": 127.65376048299642, "alt_km": 635.1071531252592, "timestamp": "2025-12-26T03:50:12.478549+00:00", "meta": {"OBJECT_NAME": "IRIDIUM 33 DEB", "OBJECT_ID": "1997-051DA", "EPOCH": "2025-12-25T16:05:58.410816", "MEAN_MOTION": 14.82763953, "ECCENTRICITY": 0.0034351, "INCLINATION": 86.341, "RA_OF_ASC_NODE": 60.9075, "ARG_OF_PERICENTER": 246.9667, "MEAN_ANOMALY": 112.7932, "EPHEMERIS_TYPE": 0, "CLASSIFICATION_TYPE": "U", "NORAD_CAT_ID": 34091, "ELEMENT_SET_NO": 999, "REV_AT_EPOCH": 88058, "BSTAR": 0.0047742, "MEAN_MOTION_DOT": 0.00039162, "MEAN_MOTION_DDOT": 0}, "tle": {"line1": "1 34091U 97051DA  25359.67081494  .00039162  00000+0  47742-2 0  9998", "line2": "2 34091  86.3410  60.9075 0034351 246.9667 112.7932 14.82763953880586"}}, "geometry": {"type": "Point", "coordinates": [127.65376048299642, 86.02244143603536]}}, {"type": "Feature", "properties": {"norad_id": 34097, "name": "IRIDIUM 33 DEB", "group": "iridium-33-debris", "lat": -25.926271886939215, "lon": 177.33473650302253, "alt_km": 802.9628850131912, "timestamp": "2025-12-26T03:50:12.478560+00:00", "meta": {"OBJECT_NAME": "IRIDIUM 33 DEB", "OBJECT_ID": "1997-051DG", "EPOCH": "2025-12-25T00:05:41.421696", "MEAN_MOTION": 14.34875051, "ECCENTRICITY": 0.00814136, "INCLINATION": 86.2004, "RA_OF_ASC_NODE": 355.9934, "ARG_OF_PERICENTER": 322.038, "MEAN_ANOMALY": 37.5093, "EPHEMERIS_TYPE": 0, "CLASSIFICATION_TYPE": "U", "NORAD_CAT_ID": 34097, "ELEMENT_SET_NO": 999, "REV_AT_EPOCH": 87295, "BSTAR": 0.001672202, "MEAN_MOTION_DOT": 4.948e-05, "MEAN_MOTION_DDOT": 0}, "tle": {"line1": "1 34097U 97051DG  25359.00395164  .00004948  00000+0  16722-2 0  9991", "line2": "2 34097  86.2004 355.9934 0081413 322.0380  37.5093 14.34875051872954"}}, "geometry": {"type": "Point", "coordinates": [177.33473650302253, -25.926271886939215]}}, {"type": "Feature", "properties": {"norad_id": 34145, "name": "IRIDIUM 33 DEB", "group": "iridium-33-debris", "lat": 61.03032749503648, "lon": 139.6780562497097, "alt_km": 729.5294950620455, "timestamp": "2025-12-26T03:50:12.478571+00:00", "meta": {"OBJECT_NAME": "IRIDIUM 33 DEB", "OBJECT_ID": "1997-051DY", "EPOCH": "2025-12-25T03:59:02.088960", "MEAN_MOTION": 14.42378042, "ECCENTRICITY": 0.0055477, "INCLINATION": 86.2128, "RA_OF_ASC_NODE": 326.9922, "ARG_OF_PERICENTER": 54.349, "MEAN_ANOMALY": 306.2857, "EPHEMERIS_TYPE": 0, "CLASSIFICATION_TYPE": "U", "NORAD_CAT_ID": 34145, "ELEMENT_SET_NO": 999, "REV_AT_EPOCH": 87817, "BSTAR": 0.0013219, "MEAN_MOTION_DOT": 4.47e-05, "MEAN_MOTION_DDOT": 0}, "tle": {"line1": "1 34145U 97051DY  25359.16599640  .00004470  00000+0  13219-2 0  9995", "line2": "2 34145  86.2128 326.9922 0055477  54.3490 306.2857 14.42378042878179"}}, "geometry": {"type": "Point", "coordinates": [139.6780562497097, 61.03032749503648]}}, {"type": "Feature", "properties": {"norad_id": 34146, "name": "IRIDIUM 33 DEB", "group": "iridium-33-debris", "lat": 80.55982310112421, "lon": 6.878705627311899, "alt_km": 722.5035466656582, "timestamp": "2025-12-26T03:50:12.478582+00:00", "meta": {"OBJECT_NAME": "IRIDIUM 33 DEB", "OBJECT_ID": "1997-051DZ", "EPOCH": "2025-12-25T11:29:22.361856", "MEAN_MOTION": 14.491292, "ECCENTRICITY": 0.0026943, "INCLINATION": 86.2842, "RA_OF_ASC_NODE": 344.172, "ARG_OF_PERICENTER": 177.7874, "MEAN_ANOMALY": 312.7294, "EPHEMERIS_TYPE": 0, "CLASSIFICATION_TYPE": "U", "NORAD_CAT_ID": 34146, "ELEMENT_SET_NO": 999, "REV_AT_EPOCH": 88291, "BSTAR": 0.00090456, "MEAN_MOTION_DOT": 3.474e-05, "MEAN_MOTION_DDOT": 0}, "tle": {"line1": "1 34146U 97051DZ  25359.47873104  .00003474  00000+0  90456-3 0  9992", "line2": "2 34146  86.2842 344.1720 0026943 177.7874 312.7294 14.49129200882914"}}, "geometry": {"type": "Point", "coordinates": [6.878705627311899, 80.55982310112421]}}, {"type": "Feature", "properties": {"norad_id": 34159, "name": "IRIDIUM 33 DEB", "group": "iridium-33-debris", "lat": 6.101645185680634, "lon": 42.90926969361144, "alt_km": 776.4944736386751, "timestamp": "2025-12-26T03:50:12.478593+00:00", "meta": {"OBJECT_NAME": "IRIDIUM 33 DEB", "OBJECT_ID": "1997-051EN", "EPOCH": "2025-12-25T12:47:00.400128", "MEAN_MOTION": 14.38524425, "ECCENTRICITY": 0.0026262, "INCLINATION": 86.3493, "RA_OF_ASC_NODE": 42.7857, "ARG_OF_PERICENTER": 242.6608, "MEAN_ANOMALY": 117.1916, "EPHEMERIS_TYPE": 0, "CLASSIFICATION_TYPE": "U", "NORAD_CAT_ID": 34159, "ELEMENT_SET_NO": 999, "REV_AT_EPOCH": 88143, "BSTAR": 0.00040229, "MEAN_MOTION_DOT": 1.253e-05, "MEAN_MOTION_DDOT": 0}, "tle": {"line1": "1 34159U 97051EN  25359.53264352  .00001253  00000+0  40229-3 0  9998", "line2": "2 34159  86.3493  42.7857 0026262 242.6608 117.1916 14.38524425881434"}}, "geometry": {"type": "Point", "coordinates": [42.90926969361144, 6.101645185680634]}}, {"type": "Feature", "properties": {"norad_id": 34350, "name": "IRIDIUM 33 DEB", "group": "iridium-33-debris", "lat": 6.863712546042274, "lon": -2.5736543076815552, "alt_km": 741.831538293015, "timestamp": "2025-12-26T03:50:12.478604+00:00", "meta": {"OBJECT_NAME": "IRIDIUM 33 DEB", "OBJECT_ID": "1997-051ES", "EPOCH": "2025-12-24T23:49:25.823136", "MEAN_MOTION": 14.45414925, "ECCENTRICITY": 0.00235086, "INCLINATION": 86.3273, "RA_OF_ASC_NODE": 357.4897, "ARG_OF_PERICENTER": 97.7488, "MEAN_ANOMALY": 319.833, "EPHEMERIS_TYPE": 0, "CLASSIFICATION_TYPE": "U", "NORAD_CAT_ID": 34350, "ELEMENT_SET_NO": 999, "REV_AT_EPOCH": 88470, "BSTAR": 0.00034315311, "MEAN_MOTION_DOT": 1.231e-05, "MEAN_MOTION_DDOT": 0}, "tle": {"line1": "1 34350U 97051ES  25358.99265999  .00001231  00000+0  34315-3 0  9993", "line2": "2 34350  86.3273 357.4897 0023508  97.7488 319.8330 14.45414925884703"}}, "geometry": {"type": "Point", "coordinates": [-2.5736543076815552, 6.863712546042274]}}, {"type": "Feature", "properties": {"norad_id": 34366, "name": "IRIDIUM 33 DEB", "group": "iridium-33-debris", "lat": 34.81773191169953, "lon": 46.00676541732469, "alt_km": 702.4406625680431, "timestamp": "2025-12-26T03:50:12.478614+00:00", "meta": {"OBJECT_NAME": "IRIDIUM 33 DEB", "OBJECT_ID": "1997-051FJ", "EPOCH": "2025-12-25T13:24:52.713216", "MEAN_MOTION": 14.5415312, "ECCENTRICITY": 0.0023044, "INCLINATION": 86.3679, "RA_OF_ASC_NODE": 43.7363, "ARG_OF_PERICENTER": 99.9841, "MEAN_ANOMALY": 31.4578, "EPHEMERIS_TYPE": 0, "CLASSIFICATION_TYPE": "U", "NORAD_CAT_ID": 34366, "ELEMENT_SET_NO": 999, "REV_AT_EPOCH": 88368, "BSTAR": 0.00092452, "MEAN_MOTION_DOT": 3.943e-05, "MEAN_MOTION_DDOT": 0}, "tle": {"line1": "1 34366U 97051FJ  25359.55894344  .00003943  00000+0  92452-3 0  9993", "line2": "2 34366  86.3679  43.7363 0023044  99.9841  31.4578 14.54153120883689"}}, "geometry": {"type": "Point", "coordinates": [46.00676541732469, 34.81773191169953]}}, {"type": "Feature", "properties": {"norad_id": 34375, "name": "IRIDIUM 33 DEB", "group": "iridium-33-debris", "lat": 7.305607606371073, "lon": 177.75008709241072, "alt_km": 816.9198262821701, "timestamp": "2025-12-26T03:50:12.478625+00:00", "meta": {"OBJECT_NAME": "IRIDIUM 33 DEB", "OBJECT_ID": "1997-051FT", "EPOCH": "2025-12-25T12:52:34.268736", "MEAN_MOTION": 14.18014941, "ECCENTRICITY": 0.0103685, "INCLINATION": 86.4324, "RA_OF_ASC_NODE": 177.5431, "ARG_OF_PERICENTER": 86.7144, "MEAN_ANOMALY": 341.7037, "EPHEMERIS_TYPE": 0, "CLASSIFICATION_TYPE": "U", "NORAD_CAT_ID": 34375, "ELEMENT_SET_NO": 999, "REV_AT_EPOCH": 86893, "BSTAR": 0.00040149, "MEAN_MOTION_DOT": 8.86e-06, "MEAN_MOTION_DDOT": 0}, "tle": {"line1": "1 34375U 97051FT  25359.53650774  .00000886  00000+0  40149-3 0  9997", "line2": "2 34375  86.4324 177.5431 0103685  86.7144 341.7037 14.18014941868934"}}, "geometry": {"type": "Point", "coordinates": [177.75008709241072, 7.305607606371073]}}]}